{
    "links": {
        "self": "http://www.neowsapp.com/rest/v1/neo/3720444?api_key=iIulBulltgU6a56xZRHN4H3l9WmuAYTsLGpBGhQ2"
    },
    "id": "3720444",
    "neo_reference_id": "3720444",
    "name": "(2015 KO122)",
    "designation": "2015 KO122",
    "nasa_jpl_url": "http://ssd.jpl.nasa.gov/sbdb.cgi?sstr=3720444",
    "absolute_magnitude_h": 27.0,
    "estimated_diameter": {
        "kilometers": {
            "estimated_diameter_min": 0.0105816886,
            "estimated_diameter_max": 0.023661375
        },
        "meters": {
            "estimated_diameter_min": 10.5816885933,
            "estimated_diameter_max": 23.6613750114
        },
        "miles": {
            "estimated_diameter_min": 0.0065751544,
            "estimated_diameter_max": 0.0147024923
        },
        "feet": {
            "estimated_diameter_min": 34.7168272045,
            "estimated_diameter_max": 77.6291855923
        }
    },
    "is_potentially_hazardous_asteroid": false,
    "close_approach_data": [
        {
            "close_approach_date": "1962-09-15",
            "close_approach_date_full": "1962-Sep-15 14:01",
            "epoch_date_close_approach": -230205540000,
            "relative_velocity": {
                "kilometers_per_second": "17.2246000574",
                "kilometers_per_hour": "62008.5602067692",
                "miles_per_hour": "38529.7078684784"
            },
            "miss_distance": {
                "astronomical": "0.0262097083",
                "lunar": "10.1955765287",
                "kilometers": "3920916.535001321",
                "miles": "2436344.5600513898"
            },
            "orbiting_body": "Mars"
        },
        {
            "close_approach_date": "2015-05-24",
            "close_approach_date_full": "2015-May-24 12:22",
            "epoch_date_close_approach": 1432470120000,
            "relative_velocity": {
                "kilometers_per_second": "13.8849607626",
                "kilometers_per_hour": "49985.8587454799",
                "miles_per_hour": "31059.2687299344"
            },
            "miss_distance": {
                "astronomical": "0.0055437473",
                "lunar": "2.1565176997",
                "kilometers": "829332.787898251",
                "miles": "515323.4985318238"
            },
            "orbiting_body": "Moon"
        },
        {
            "close_approach_date": "2015-05-24",
            "close_approach_date_full": "2015-May-24 15:23",
            "epoch_date_close_approach": 1432480980000,
            "relative_velocity": {
                "kilometers_per_second": "14.7344864587",
                "kilometers_per_hour": "53044.1512514867",
                "miles_per_hour": "32959.5727595696"
            },
            "miss_distance": {
                "astronomical": "0.0074579315",
                "lunar": "2.9011353535",
                "kilometers": "1115690.667005905",
                "miles": "693258.033675289"
            },
            "orbiting_body": "Earth"
        }
    ],
    "orbital_data": {
        "orbit_id": "4",
        "orbit_determination_date": "2017-04-06 08:33:24",
        "first_observation_date": "2015-05-26",
        "last_observation_date": "2015-05-27",
        "data_arc_in_days": 1,
        "observations_used": 46,
        "orbit_uncertainty": "8",
        "minimum_orbit_intersection": ".00350897",
        "jupiter_tisserand_invariant": "3.704",
        "epoch_osculation": "2457169.5",
        "eccentricity": ".5877419360075182",
        "semi_major_axis": "1.909721347183103",
        "inclination": "2.438458454173781",
        "ascending_node_longitude": "237.6803652531045",
        "orbital_period": "963.9476102045287",
        "perihelion_distance": ".7872980253548202",
        "perihelion_argument": "298.2562585168803",
        "aphelion_distance": "3.032144669011386",
        "perihelion_time": "2457122.273092111194",
        "mean_anomaly": "17.63756314138563",
        "mean_motion": ".3734642797896618",
        "equinox": "J2000",
        "orbit_class": {
            "orbit_class_type": "APO",
            "orbit_class_description": "Near-Earth asteroid orbits which cross the Earth’s orbit similar to that of 1862 Apollo",
            "orbit_class_range": "a (semi-major axis) > 1.0 AU; q (perihelion) < 1.017 AU"
        }
    },
    "is_sentry_object": false
}